CCSDS_OMM_VERS = 2.0
CREATION_DATE  = 
ORIGINATOR     = 

OBJECT_NAME    = FLOCK 4H-19
OBJECT_ID      = 2025-276BJ
CENTER_NAME    = EARTH
REF_FRAME      = TEME
TIME_SYSTEM    = UTC
MEAN_ELEMENT_THEORY = SGP/SGP4

EPOCH          = 2025-12-28T02:06:43.906752
MEAN_MOTION    = 15.18407630
ECCENTRICITY   = .0002653
INCLINATION    = 97.4381
RA_OF_ASC_NODE = 73.6090
ARG_OF_PERICENTER = 142.1532
MEAN_ANOMALY   = 217.9889

EPHEMERIS_TYPE = 0
CLASSIFICATION_TYPE = U
NORAD_CAT_ID   = 66722
ELEMENT_SET_NO = 999
REV_AT_EPOCH   = 374
BSTAR          = .10246E-2
MEAN_MOTION_DOT = .21056E-3
MEAN_MOTION_DDOT = 0

CCSDS_OMM_VERS = 2.0
CREATION_DATE  = 
ORIGINATOR     = 

OBJECT_NAME    = FLOCK 4H-20
OBJECT_ID      = 2025-276BK
CENTER_NAME    = EARTH
REF_FRAME      = TEME
TIME_SYSTEM    = UTC
MEAN_ELEMENT_THEORY = SGP/SGP4

EPOCH          = 2025-12-28T02:05:39.828192
MEAN_MOTION    = 15.18402564
ECCENTRICITY   = .0003227
INCLINATION    = 97.4417
RA_OF_ASC_NODE = 73.6262
ARG_OF_PERICENTER = 155.6230
MEAN_ANOMALY   = 204.5158

EPHEMERIS_TYPE = 0
CLASSIFICATION_TYPE = U
NORAD_CAT_ID   = 66723
ELEMENT_SET_NO = 999
REV_AT_EPOCH   = 370
BSTAR          = .73981E-3
MEAN_MOTION_DOT = .15171E-3
MEAN_MOTION_DDOT = 0

CCSDS_OMM_VERS = 2.0
CREATION_DATE  = 
ORIGINATOR     = 

OBJECT_NAME    = FLOCK 4H-21
OBJECT_ID      = 2025-276BL
CENTER_NAME    = EARTH
REF_FRAME      = TEME
TIME_SYSTEM    = UTC
MEAN_ELEMENT_THEORY = SGP/SGP4

EPOCH          = 2025-12-28T03:39:33.304320
MEAN_MOTION    = 15.18441771
ECCENTRICITY   = .000346
INCLINATION    = 97.4382
RA_OF_ASC_NODE = 73.6753
ARG_OF_PERICENTER = 157.2664
MEAN_ANOMALY   = 202.8724

EPHEMERIS_TYPE = 0
CLASSIFICATION_TYPE = U
NORAD_CAT_ID   = 66724
ELEMENT_SET_NO = 999
REV_AT_EPOCH   = 371
BSTAR          = .13807E-2
MEAN_MOTION_DOT = .28455E-3
MEAN_MOTION_DDOT = 0

CCSDS_OMM_VERS = 2.0
CREATION_DATE  = 
ORIGINATOR     = 

OBJECT_NAME    = FLOCK 4H-22
OBJECT_ID      = 2025-276BM
CENTER_NAME    = EARTH
REF_FRAME      = TEME
TIME_SYSTEM    = UTC
MEAN_ELEMENT_THEORY = SGP/SGP4

EPOCH          = 2025-12-28T00:53:14.177760
MEAN_MOTION    = 15.17561670
ECCENTRICITY   = .0001559
INCLINATION    = 97.4370
RA_OF_ASC_NODE = 73.5184
ARG_OF_PERICENTER = 257.6230
MEAN_ANOMALY   = 102.4830

EPHEMERIS_TYPE = 0
CLASSIFICATION_TYPE = U
NORAD_CAT_ID   = 66725
ELEMENT_SET_NO = 999
REV_AT_EPOCH   = 444
BSTAR          = .402E-3
MEAN_MOTION_DOT = .8008E-4
MEAN_MOTION_DDOT = 0

CCSDS_OMM_VERS = 2.0
CREATION_DATE  = 
ORIGINATOR     = 

OBJECT_NAME    = FLOCK 4H-23
OBJECT_ID      = 2025-276BN
CENTER_NAME    = EARTH
REF_FRAME      = TEME
TIME_SYSTEM    = UTC
MEAN_ELEMENT_THEORY = SGP/SGP4

EPOCH          = 2025-12-28T04:09:39.358080
MEAN_MOTION    = 15.17288285
ECCENTRICITY   = .000373
INCLINATION    = 97.4436
RA_OF_ASC_NODE = 73.6705
ARG_OF_PERICENTER = 219.9971
MEAN_ANOMALY   = 140.0988

EPHEMERIS_TYPE = 0
CLASSIFICATION_TYPE = U
NORAD_CAT_ID   = 66726
ELEMENT_SET_NO = 999
REV_AT_EPOCH   = 446
BSTAR          = .34525E-3
MEAN_MOTION_DOT = .6814E-4
MEAN_MOTION_DDOT = 0

CCSDS_OMM_VERS = 2.0
CREATION_DATE  = 
ORIGINATOR     = 

OBJECT_NAME    = FLOCK 4H-24
OBJECT_ID      = 2025-276BP
CENTER_NAME    = EARTH
REF_FRAME      = TEME
TIME_SYSTEM    = UTC
MEAN_ELEMENT_THEORY = SGP/SGP4

EPOCH          = 2025-12-28T04:06:42.715008
MEAN_MOTION    = 15.17394725
ECCENTRICITY   = .0003051
INCLINATION    = 97.4435
RA_OF_ASC_NODE = 73.6755
ARG_OF_PERICENTER = 236.9974
MEAN_ANOMALY   = 123.0966

EPHEMERIS_TYPE = 0
CLASSIFICATION_TYPE = U
NORAD_CAT_ID   = 66727
ELEMENT_SET_NO = 999
REV_AT_EPOCH   = 446
BSTAR          = .36166E-3
MEAN_MOTION_DOT = .7163E-4
MEAN_MOTION_DDOT = 0

CCSDS_OMM_VERS = 2.0
CREATION_DATE  = 
ORIGINATOR     = 

OBJECT_NAME    = FLOCK 4H-25
OBJECT_ID      = 2025-276BQ
CENTER_NAME    = EARTH
REF_FRAME      = TEME
TIME_SYSTEM    = UTC
MEAN_ELEMENT_THEORY = SGP/SGP4

EPOCH          = 2025-12-28T03:41:58.737120
MEAN_MOTION    = 15.18284814
ECCENTRICITY   = .000178
INCLINATION    = 97.4392
RA_OF_ASC_NODE = 73.6788
ARG_OF_PERICENTER = 113.6226
MEAN_ANOMALY   = 246.5195

EPHEMERIS_TYPE = 0
CLASSIFICATION_TYPE = U
NORAD_CAT_ID   = 66728
ELEMENT_SET_NO = 999
REV_AT_EPOCH   = 374
BSTAR          = .41604E-3
MEAN_MOTION_DOT = .8465E-4
MEAN_MOTION_DDOT = 0

CCSDS_OMM_VERS = 2.0
CREATION_DATE  = 
ORIGINATOR     = 

OBJECT_NAME    = FLOCK 4H-26
OBJECT_ID      = 2025-276BR
CENTER_NAME    = EARTH
REF_FRAME      = TEME
TIME_SYSTEM    = UTC
MEAN_ELEMENT_THEORY = SGP/SGP4

EPOCH          = 2025-12-28T04:12:10.202112
MEAN_MOTION    = 15.17222870
ECCENTRICITY   = .0003786
INCLINATION    = 97.4386
RA_OF_ASC_NODE = 73.6498
ARG_OF_PERICENTER = 236.3053
MEAN_ANOMALY   = 123.7820

EPHEMERIS_TYPE = 0
CLASSIFICATION_TYPE = U
NORAD_CAT_ID   = 66729
ELEMENT_SET_NO = 999
REV_AT_EPOCH   = 446
BSTAR          = .58516E-3
MEAN_MOTION_DOT = .11581E-3
MEAN_MOTION_DDOT = 0

CCSDS_OMM_VERS = 2.0
CREATION_DATE  = 
ORIGINATOR     = 

OBJECT_NAME    = FLOCK 4H-27
OBJECT_ID      = 2025-276BS
CENTER_NAME    = EARTH
REF_FRAME      = TEME
TIME_SYSTEM    = UTC
MEAN_ELEMENT_THEORY = SGP/SGP4

EPOCH          = 2025-12-28T03:45:47.526912
MEAN_MOTION    = 15.17789052
ECCENTRICITY   = .0005279
INCLINATION    = 97.4367
RA_OF_ASC_NODE = 73.6655
ARG_OF_PERICENTER = 228.7613
MEAN_ANOMALY   = 131.3167

EPHEMERIS_TYPE = 0
CLASSIFICATION_TYPE = U
NORAD_CAT_ID   = 66730
ELEMENT_SET_NO = 999
REV_AT_EPOCH   = 446
BSTAR          = -.10658E-1
MEAN_MOTION_DOT = -.209348E-2
MEAN_MOTION_DDOT = 0

CCSDS_OMM_VERS = 2.0
CREATION_DATE  = 
ORIGINATOR     = 

OBJECT_NAME    = FLOCK 4H-28
OBJECT_ID      = 2025-276BT
CENTER_NAME    = EARTH
REF_FRAME      = TEME
TIME_SYSTEM    = UTC
MEAN_ELEMENT_THEORY = SGP/SGP4

EPOCH          = 2025-12-28T04:11:47.097024
MEAN_MOTION    = 15.17207007
ECCENTRICITY   = .0003413
INCLINATION    = 97.4373
RA_OF_ASC_NODE = 73.6456
ARG_OF_PERICENTER = 237.1920
MEAN_ANOMALY   = 122.8985

EPHEMERIS_TYPE = 0
CLASSIFICATION_TYPE = U
NORAD_CAT_ID   = 66731
ELEMENT_SET_NO = 999
REV_AT_EPOCH   = 446
BSTAR          = .5916E-3
MEAN_MOTION_DOT = .11704E-3
MEAN_MOTION_DDOT = 0

CCSDS_OMM_VERS = 2.0
CREATION_DATE  = 
ORIGINATOR     = 

OBJECT_NAME    = FLOCK 4H-29
OBJECT_ID      = 2025-276BU
CENTER_NAME    = EARTH
REF_FRAME      = TEME
TIME_SYSTEM    = UTC
MEAN_ELEMENT_THEORY = SGP/SGP4

EPOCH          = 2025-12-28T04:07:51.340800
MEAN_MOTION    = 15.17343618
ECCENTRICITY   = .0002141
INCLINATION    = 97.4367
RA_OF_ASC_NODE = 73.6436
ARG_OF_PERICENTER = 251.3904
MEAN_ANOMALY   = 108.7097

EPHEMERIS_TYPE = 0
CLASSIFICATION_TYPE = U
NORAD_CAT_ID   = 66732
ELEMENT_SET_NO = 999
REV_AT_EPOCH   = 446
BSTAR          = .35857E-3
MEAN_MOTION_DOT = .709E-4
MEAN_MOTION_DDOT = 0

CCSDS_OMM_VERS = 2.0
CREATION_DATE  = 
ORIGINATOR     = 

OBJECT_NAME    = FLOCK 4H-30
OBJECT_ID      = 2025-276BV
CENTER_NAME    = EARTH
REF_FRAME      = TEME
TIME_SYSTEM    = UTC
MEAN_ELEMENT_THEORY = SGP/SGP4

EPOCH          = 2025-12-28T04:09:37.408896
MEAN_MOTION    = 15.17326213
ECCENTRICITY   = .0003342
INCLINATION    = 97.4428
RA_OF_ASC_NODE = 73.6694
ARG_OF_PERICENTER = 239.1019
MEAN_ANOMALY   = 120.9886

EPHEMERIS_TYPE = 0
CLASSIFICATION_TYPE = U
NORAD_CAT_ID   = 66733
ELEMENT_SET_NO = 999
REV_AT_EPOCH   = 446
BSTAR          = .61084E-3
MEAN_MOTION_DOT = .12128E-3
MEAN_MOTION_DDOT = 0

CCSDS_OMM_VERS = 2.0
CREATION_DATE  = 
ORIGINATOR     = 

OBJECT_NAME    = FLOCK 4H-31
OBJECT_ID      = 2025-276BW
CENTER_NAME    = EARTH
REF_FRAME      = TEME
TIME_SYSTEM    = UTC
MEAN_ELEMENT_THEORY = SGP/SGP4

EPOCH          = 2025-12-28T04:09:40.992768
MEAN_MOTION    = 15.17276052
ECCENTRICITY   = .0002595
INCLINATION    = 97.4364
RA_OF_ASC_NODE = 73.6428
ARG_OF_PERICENTER = 242.3220
MEAN_ANOMALY   = 117.7750

EPHEMERIS_TYPE = 0
CLASSIFICATION_TYPE = U
NORAD_CAT_ID   = 66734
ELEMENT_SET_NO = 999
REV_AT_EPOCH   = 446
BSTAR          = .63301E-3
MEAN_MOTION_DOT = .12553E-3
MEAN_MOTION_DDOT = 0

CCSDS_OMM_VERS = 2.0
CREATION_DATE  = 
ORIGINATOR     = 

OBJECT_NAME    = FLOCK 4H-32
OBJECT_ID      = 2025-276BX
CENTER_NAME    = EARTH
REF_FRAME      = TEME
TIME_SYSTEM    = UTC
MEAN_ELEMENT_THEORY = SGP/SGP4

EPOCH          = 2025-12-28T04:10:10.158816
MEAN_MOTION    = 15.17303888
ECCENTRICITY   = .0003702
INCLINATION    = 97.4422
RA_OF_ASC_NODE = 73.6651
ARG_OF_PERICENTER = 234.1768
MEAN_ANOMALY   = 125.9122

EPHEMERIS_TYPE = 0
CLASSIFICATION_TYPE = U
NORAD_CAT_ID   = 66735
ELEMENT_SET_NO = 999
REV_AT_EPOCH   = 446
BSTAR          = .59363E-3
MEAN_MOTION_DOT = .11777E-3
MEAN_MOTION_DDOT = 0

CCSDS_OMM_VERS = 2.0
CREATION_DATE  = 
ORIGINATOR     = 

OBJECT_NAME    = FLOCK 4H-33
OBJECT_ID      = 2025-276BY
CENTER_NAME    = EARTH
REF_FRAME      = TEME
TIME_SYSTEM    = UTC
MEAN_ELEMENT_THEORY = SGP/SGP4

EPOCH          = 2025-12-28T02:05:58.673760
MEAN_MOTION    = 15.18375104
ECCENTRICITY   = .0002967
INCLINATION    = 97.4421
RA_OF_ASC_NODE = 73.6269
ARG_OF_PERICENTER = 146.6157
MEAN_ANOMALY   = 213.5265

EPHEMERIS_TYPE = 0
CLASSIFICATION_TYPE = U
NORAD_CAT_ID   = 66736
ELEMENT_SET_NO = 999
REV_AT_EPOCH   = 445
BSTAR          = .55246E-3
MEAN_MOTION_DOT = .11297E-3
MEAN_MOTION_DDOT = 0

